[
  {
    "OBJECT_NAME": "STARLINK-31886",
    "OBJECT_ID": "24084J",
    "EPOCH": "2025-11-11T03:48:44.018784",
    "MEAN_MOTION": 15.27576756,
    "ECCENTRICITY": 9.04e-05,
    "INCLINATION": 43.0046,
    "RA_OF_ASC_NODE": 351.3502,
    "ARG_OF_PERICENTER": 263.3409,
    "MEAN_ANOMALY": 96.734,
    "EPHEMERIS_TYPE": 0,
    "CLASSIFICATION_TYPE": "U",
    "NORAD_CAT_ID": 59662,
    "ELEMENT_SET_NO": 999,
    "REV_AT_EPOCH": 8624,
    "BSTAR": 4.5894000000000005e-05,
    "MEAN_MOTION_DOT": 1.001e-05,
    "MEAN_MOTION_DDOT": 0.0,
    "TLE_LINE1": "1 59662U 24084J   25315.15884281  .00001001  00000+0  45894-4 0  9994",
    "TLE_LINE2": "2 59662  43.0046 351.3502 0000904 263.3409  96.7340 15.27576756 86246",
    "COMMENT": "Grouped by shell and plane from TLE"
  },
  {
    "OBJECT_NAME": "STARLINK-31909",
    "OBJECT_ID": "24084K",
    "EPOCH": "2025-11-11T02:47:40.744320",
    "MEAN_MOTION": 15.2757337,
    "ECCENTRICITY": 0.0001108,
    "INCLINATION": 42.9993,
    "RA_OF_ASC_NODE": 351.0705,
    "ARG_OF_PERICENTER": 257.5484,
    "MEAN_ANOMALY": 102.5244,
    "EPHEMERIS_TYPE": 0,
    "CLASSIFICATION_TYPE": "U",
    "NORAD_CAT_ID": 59663,
    "ELEMENT_SET_NO": 999,
    "REV_AT_EPOCH": 8624,
    "BSTAR": 0.00010101000000000001,
    "MEAN_MOTION_DOT": 2.518e-05,
    "MEAN_MOTION_DDOT": 0.0,
    "TLE_LINE1": "1 59663U 24084K   25315.11644380  .00002518  00000+0  10101-3 0  9991",
    "TLE_LINE2": "2 59663  42.9993 351.0705 0001108 257.5484 102.5244 15.27573370 86241",
    "COMMENT": "Grouped by shell and plane from TLE"
  },
  {
    "OBJECT_NAME": "STARLINK-31910",
    "OBJECT_ID": "24084L",
    "EPOCH": "2025-11-11T03:08:01.238496",
    "MEAN_MOTION": 15.27580901,
    "ECCENTRICITY": 8.84e-05,
    "INCLINATION": 42.9991,
    "RA_OF_ASC_NODE": 351.1307,
    "ARG_OF_PERICENTER": 281.6008,
    "MEAN_ANOMALY": 78.4745,
    "EPHEMERIS_TYPE": 0,
    "CLASSIFICATION_TYPE": "U",
    "NORAD_CAT_ID": 59664,
    "ELEMENT_SET_NO": 999,
    "REV_AT_EPOCH": 8624,
    "BSTAR": 5.857200000000001e-05,
    "MEAN_MOTION_DOT": 1.35e-05,
    "MEAN_MOTION_DDOT": 0.0,
    "TLE_LINE1": "1 59664U 24084L   25315.13056989  .00001350  00000+0  58572-4 0  9994",
    "TLE_LINE2": "2 59664  42.9991 351.1307 0000884 281.6008  78.4745 15.27580901 86244",
    "COMMENT": "Grouped by shell and plane from TLE"
  },
  {
    "OBJECT_NAME": "STARLINK-31902",
    "OBJECT_ID": "24084N",
    "EPOCH": "2025-11-11T03:59:48.449472",
    "MEAN_MOTION": 15.2761262,
    "ECCENTRICITY": 0.0002118,
    "INCLINATION": 43.0086,
    "RA_OF_ASC_NODE": 351.4121,
    "ARG_OF_PERICENTER": 278.8294,
    "MEAN_ANOMALY": 81.2317,
    "EPHEMERIS_TYPE": 0,
    "CLASSIFICATION_TYPE": "U",
    "NORAD_CAT_ID": 59666,
    "ELEMENT_SET_NO": 999,
    "REV_AT_EPOCH": 8624,
    "BSTAR": 0.0,
    "MEAN_MOTION_DOT": -7.998e-05,
    "MEAN_MOTION_DDOT": 0.0,
    "TLE_LINE1": "1 59666U 24084N   25315.16653298 -.00007998  00000+0 -28112-3 0  9997",
    "TLE_LINE2": "2 59666  43.0086 351.4121 0002118 278.8294  81.2317 15.27612620 86248",
    "COMMENT": "Grouped by shell and plane from TLE"
  },
  {
    "OBJECT_NAME": "STARLINK-31917",
    "OBJECT_ID": "24084R",
    "EPOCH": "2025-11-11T03:33:55.861344",
    "MEAN_MOTION": 15.27578372,
    "ECCENTRICITY": 4.34e-05,
    "INCLINATION": 43.0041,
    "RA_OF_ASC_NODE": 351.2672,
    "ARG_OF_PERICENTER": 226.5836,
    "MEAN_ANOMALY": 133.4979,
    "EPHEMERIS_TYPE": 0,
    "CLASSIFICATION_TYPE": "U",
    "NORAD_CAT_ID": 59669,
    "ELEMENT_SET_NO": 999,
    "REV_AT_EPOCH": 8624,
    "BSTAR": 0.0001249,
    "MEAN_MOTION_DOT": 3.177e-05,
    "MEAN_MOTION_DDOT": 0.0,
    "TLE_LINE1": "1 59669U 24084R   25315.14856321  .00003177  00000+0  12490-3 0  9995",
    "TLE_LINE2": "2 59669  43.0041 351.2672 0000434 226.5836 133.4979 15.27578372 86241",
    "COMMENT": "Grouped by shell and plane from TLE"
  },
  {
    "OBJECT_NAME": "STARLINK-31871",
    "OBJECT_ID": "24084V",
    "EPOCH": "2025-11-11T03:22:49.139328",
    "MEAN_MOTION": 15.27573588,
    "ECCENTRICITY": 0.0001333,
    "INCLINATION": 43.0024,
    "RA_OF_ASC_NODE": 351.2049,
    "ARG_OF_PERICENTER": 274.3813,
    "MEAN_ANOMALY": 85.6886,
    "EPHEMERIS_TYPE": 0,
    "CLASSIFICATION_TYPE": "U",
    "NORAD_CAT_ID": 59673,
    "ELEMENT_SET_NO": 999,
    "REV_AT_EPOCH": 8624,
    "BSTAR": 6.332100000000001e-05,
    "MEAN_MOTION_DOT": 1.48e-05,
    "MEAN_MOTION_DDOT": 0.0,
    "TLE_LINE1": "1 59673U 24084V   25315.14084652  .00001480  00000+0  63321-4 0  9995",
    "TLE_LINE2": "2 59673  43.0024 351.2049 0001333 274.3813  85.6886 15.27573588 86249",
    "COMMENT": "Grouped by shell and plane from TLE"
  },
  {
    "OBJECT_NAME": "STARLINK-31877",
    "OBJECT_ID": "24084X",
    "EPOCH": "2025-11-11T03:45:01.430784",
    "MEAN_MOTION": 15.27587558,
    "ECCENTRICITY": 0.0001056,
    "INCLINATION": 43.0031,
    "RA_OF_ASC_NODE": 351.3227,
    "ARG_OF_PERICENTER": 289.4916,
    "MEAN_ANOMALY": 70.5822,
    "EPHEMERIS_TYPE": 0,
    "CLASSIFICATION_TYPE": "U",
    "NORAD_CAT_ID": 59675,
    "ELEMENT_SET_NO": 999,
    "REV_AT_EPOCH": 8624,
    "BSTAR": 0.0,
    "MEAN_MOTION_DOT": -2.63e-05,
    "MEAN_MOTION_DDOT": 0.0,
    "TLE_LINE1": "1 59675U 24084X   25315.15626656 -.00002630  00000+0 -86065-4 0  9994",
    "TLE_LINE2": "2 59675  43.0031 351.3227 0001056 289.4916  70.5822 15.27587558 86246",
    "COMMENT": "Grouped by shell and plane from TLE"
  },
  {
    "OBJECT_NAME": "STARLINK-31884",
    "OBJECT_ID": "24084Y",
    "EPOCH": "2025-11-11T01:54:13.675680",
    "MEAN_MOTION": 15.27574447,
    "ECCENTRICITY": 7.3e-05,
    "INCLINATION": 43.0042,
    "RA_OF_ASC_NODE": 351.6277,
    "ARG_OF_PERICENTER": 277.0011,
    "MEAN_ANOMALY": 83.0757,
    "EPHEMERIS_TYPE": 0,
    "CLASSIFICATION_TYPE": "U",
    "NORAD_CAT_ID": 59676,
    "ELEMENT_SET_NO": 999,
    "REV_AT_EPOCH": 8623,
    "BSTAR": 1.4385999999999999e-05,
    "MEAN_MOTION_DOT": 1.34e-06,
    "MEAN_MOTION_DDOT": 0.0,
    "TLE_LINE1": "1 59676U 24084Y   25315.07932495  .00000134  00000+0  14386-4 0  9999",
    "TLE_LINE2": "2 59676  43.0042 351.6277 0000730 277.0011  83.0757 15.27574447 86232",
    "COMMENT": "Grouped by shell and plane from TLE"
  },
  {
    "OBJECT_NAME": "STARLINK-32100",
    "OBJECT_ID": "24086E",
    "EPOCH": "2025-11-11T04:14:32.047584",
    "MEAN_MOTION": 15.27579121,
    "ECCENTRICITY": 0.0001398,
    "INCLINATION": 43.0032,
    "RA_OF_ASC_NODE": 351.0846,
    "ARG_OF_PERICENTER": 270.7158,
    "MEAN_ANOMALY": 89.3533,
    "EPHEMERIS_TYPE": 0,
    "CLASSIFICATION_TYPE": "U",
    "NORAD_CAT_ID": 59686,
    "ELEMENT_SET_NO": 999,
    "REV_AT_EPOCH": 8619,
    "BSTAR": 7.8191e-05,
    "MEAN_MOTION_DOT": 1.89e-05,
    "MEAN_MOTION_DDOT": 0.0,
    "TLE_LINE1": "1 59686U 24086E   25315.17675981  .00001890  00000+0  78191-4 0  9991",
    "TLE_LINE2": "2 59686  43.0032 351.0846 0001398 270.7158  89.3533 15.27579121 86191",
    "COMMENT": "Grouped by shell and plane from TLE"
  },
  {
    "OBJECT_NAME": "STARLINK-32103",
    "OBJECT_ID": "24086G",
    "EPOCH": "2025-11-11T03:21:34.988256",
    "MEAN_MOTION": 15.27617416,
    "ECCENTRICITY": 8.28e-05,
    "INCLINATION": 42.9982,
    "RA_OF_ASC_NODE": 358.8361,
    "ARG_OF_PERICENTER": 255.6853,
    "MEAN_ANOMALY": 104.3907,
    "EPHEMERIS_TYPE": 0,
    "CLASSIFICATION_TYPE": "U",
    "NORAD_CAT_ID": 59688,
    "ELEMENT_SET_NO": 999,
    "REV_AT_EPOCH": 8610,
    "BSTAR": 0.00064563,
    "MEAN_MOTION_DOT": 0.00017567,
    "MEAN_MOTION_DDOT": 0.0,
    "TLE_LINE1": "1 59688U 24086G   25315.13998829  .00017567  00000+0  64563-3 0  9993",
    "TLE_LINE2": "2 59688  42.9982 358.8361 0000828 255.6853 104.3907 15.27617416 86107",
    "COMMENT": "Grouped by shell and plane from TLE"
  },
  {
    "OBJECT_NAME": "STARLINK-32520",
    "OBJECT_ID": "24213P",
    "EPOCH": "2025-11-11T07:05:23.884512",
    "MEAN_MOTION": 15.30202389,
    "ECCENTRICITY": 7.85e-05,
    "INCLINATION": 53.1601,
    "RA_OF_ASC_NODE": 358.3728,
    "ARG_OF_PERICENTER": 88.8165,
    "MEAN_ANOMALY": 271.2926,
    "EPHEMERIS_TYPE": 0,
    "CLASSIFICATION_TYPE": "U",
    "NORAD_CAT_ID": 62021,
    "ELEMENT_SET_NO": 999,
    "REV_AT_EPOCH": 5502,
    "BSTAR": 0.0006225699999999999,
    "MEAN_MOTION_DOT": 0.00018126,
    "MEAN_MOTION_DDOT": 0.0,
    "TLE_LINE1": "1 62021U 24213P   25315.29541533  .00018126  00000+0  62257-3 0  9993",
    "TLE_LINE2": "2 62021  53.1601 358.3728 0000785  88.8165 271.2926 15.30202389 55025",
    "COMMENT": "Grouped by shell and plane from TLE"
  },
  {
    "OBJECT_NAME": "STARLINK-32334",
    "OBJECT_ID": "24213R",
    "EPOCH": "2025-11-11T07:18:54.756288",
    "MEAN_MOTION": 15.30205367,
    "ECCENTRICITY": 0.0001337,
    "INCLINATION": 53.1606,
    "RA_OF_ASC_NODE": 357.7192,
    "ARG_OF_PERICENTER": 48.9221,
    "MEAN_ANOMALY": 311.1895,
    "EPHEMERIS_TYPE": 0,
    "CLASSIFICATION_TYPE": "U",
    "NORAD_CAT_ID": 62023,
    "ELEMENT_SET_NO": 999,
    "REV_AT_EPOCH": 5503,
    "BSTAR": 0.001817,
    "MEAN_MOTION_DOT": 0.00053855,
    "MEAN_MOTION_DDOT": 0.0,
    "TLE_LINE1": "1 62023U 24213R   25315.30480042  .00053855  00000+0  18170-2 0  9996",
    "TLE_LINE2": "2 62023  53.1606 357.7192 0001337  48.9221 311.1895 15.30205367 55033",
    "COMMENT": "Grouped by shell and plane from TLE"
  },
  {
    "OBJECT_NAME": "STARLINK-32504",
    "OBJECT_ID": "24213S",
    "EPOCH": "2025-11-11T03:01:03.884160",
    "MEAN_MOTION": 15.30239935,
    "ECCENTRICITY": 0.0001513,
    "INCLINATION": 53.1608,
    "RA_OF_ASC_NODE": 358.7396,
    "ARG_OF_PERICENTER": 76.1135,
    "MEAN_ANOMALY": 284.0034,
    "EPHEMERIS_TYPE": 0,
    "CLASSIFICATION_TYPE": "U",
    "NORAD_CAT_ID": 62024,
    "ELEMENT_SET_NO": 999,
    "REV_AT_EPOCH": 5500,
    "BSTAR": 0.0015737000000000001,
    "MEAN_MOTION_DOT": 0.00046601,
    "MEAN_MOTION_DDOT": 0.0,
    "TLE_LINE1": "1 62024U 24213S   25315.12573940  .00046601  00000+0  15737-2 0  9994",
    "TLE_LINE2": "2 62024  53.1608 358.7396 0001513  76.1135 284.0034 15.30239935 55004",
    "COMMENT": "Grouped by shell and plane from TLE"
  }
]